{
  "type": "FeatureCollection",
  "features": [
    {
      "type": "Feature",
      "properties": {
        "norad_id": 43567,
        "name": "GSAT0220 (GALILEO 24)",
        "group": "gnss",
        "lat": 24.423215175549625,
        "lon": 149.76058557427396,
        "alt_km": 23231.562413964668,
        "timestamp": "2025-12-14T14:39:29.613733+00:00",
        "meta_object_name": "GSAT0220 (GALILEO 24)",
        "meta_object_id": "2018-060D",
        "meta_epoch": "2025-12-10T20:18:00.212256",
        "meta_mean_motion": 1.70475727,
        "meta_eccentricity": 0.0006125,
        "meta_inclination": 57.2305,
        "meta_ra_of_asc_node": 346.8727,
        "meta_arg_of_pericenter": 283.9956,
        "meta_mean_anomaly": 75.9532,
        "meta_ephemeris_type": 0,
        "meta_classification_type": "U",
        "meta_norad_cat_id": 43567,
        "meta_element_set_no": 999,
        "meta_rev_at_epoch": 4596,
        "meta_bstar": 0,
        "meta_mean_motion_dot": -8.7e-07,
        "meta_mean_motion_ddot": 0,
        "tle_line1": "1 43567U 18060D   25344.84583579 -.00000087  00000+0  00000+0 0  9991",
        "tle_line2": "2 43567  57.2305 346.8727 0006125 283.9956  75.9532  1.70475727 45967"
      },
      "geometry": {
        "type": "Point",
        "coordinates": [
          149.76058557427396,
          24.423215175549625
        ]
      }
    },
    {
      "type": "Feature",
      "properties": {
        "norad_id": 43581,
        "name": "BEIDOU-3 M5 (C23)",
        "group": "gnss",
        "lat": 27.579351736872344,
        "lon": -13.65935125524677,
        "alt_km": 21530.021052278134,
        "timestamp": "2025-12-14T14:39:29.613744+00:00",
        "meta_object_name": "BEIDOU-3 M5 (C23)",
        "meta_object_id": "2018-062A",
        "meta_epoch": "2025-12-12T05:55:01.607232",
        "meta_mean_motion": 1.86228672,
        "meta_eccentricity": 0.00021016,
        "meta_inclination": 54.0891,
        "meta_ra_of_asc_node": 188.6597,
        "meta_arg_of_pericenter": 354.1416,
        "meta_mean_anomaly": 5.9159,
        "meta_ephemeris_type": 0,
        "meta_classification_type": "U",
        "meta_norad_cat_id": 43581,
        "meta_element_set_no": 999,
        "meta_rev_at_epoch": 5015,
        "meta_bstar": 0,
        "meta_mean_motion_dot": 7.9e-07,
        "meta_mean_motion_ddot": 0,
        "tle_line1": "1 43581U 18062A   25346.24654638  .00000079  00000+0  00000+0 0  9990",
        "tle_line2": "2 43581  54.0891 188.6597 0002101 354.1416   5.9159  1.86228672 50154"
      },
      "geometry": {
        "type": "Point",
        "coordinates": [
          -13.65935125524677,
          27.579351736872344
        ]
      }
    },
    {
      "type": "Feature",
      "properties": {
        "norad_id": 43582,
        "name": "BEIDOU-3 M6 (C24)",
        "group": "gnss",
        "lat": -42.7515494813833,
        "lon": 50.642883542438746,
        "alt_km": 21554.87668000985,
        "timestamp": "2025-12-14T14:39:29.613758+00:00",
        "meta_object_name": "BEIDOU-3 M6 (C24)",
        "meta_object_id": "2018-062B",
        "meta_epoch": "2025-12-13T04:24:17.587296",
        "meta_mean_motion": 1.86229795,
        "meta_eccentricity": 0.00078891,
        "meta_inclination": 54.0888,
        "meta_ra_of_asc_node": 188.6169,
        "meta_arg_of_pericenter": 47.4004,
        "meta_mean_anomaly": 312.7289,
        "meta_ephemeris_type": 0,
        "meta_classification_type": "U",
        "meta_norad_cat_id": 43582,
        "meta_element_set_no": 999,
        "meta_rev_at_epoch": 5017,
        "meta_bstar": 0,
        "meta_mean_motion_dot": 9.2e-07,
        "meta_mean_motion_ddot": 0,
        "tle_line1": "1 43582U 18062B   25347.18353689  .00000092  00000+0  00000+0 0  9992",
        "tle_line2": "2 43582  54.0888 188.6169 0007889  47.4004 312.7289  1.86229795 50171"
      },
      "geometry": {
        "type": "Point",
        "coordinates": [
          50.642883542438746,
          -42.7515494813833
        ]
      }
    },
    {
      "type": "Feature",
      "properties": {
        "norad_id": 43602,
        "name": "BEIDOU-3 M12 (C26)",
        "group": "gnss",
        "lat": -53.287861717053254,
        "lon": 111.7038030537561,
        "alt_km": 21547.921911944035,
        "timestamp": "2025-12-14T14:39:29.613772+00:00",
        "meta_object_name": "BEIDOU-3 M12 (C26)",
        "meta_object_id": "2018-067A",
        "meta_epoch": "2025-12-13T02:54:46.196064",
        "meta_mean_motion": 1.8622768,
        "meta_eccentricity": 0.00091748,
        "meta_inclination": 54.1833,
        "meta_ra_of_asc_node": 187.3503,
        "meta_arg_of_pericenter": 41.0824,
        "meta_mean_anomaly": 319.0476,
        "meta_ephemeris_type": 0,
        "meta_classification_type": "U",
        "meta_norad_cat_id": 43602,
        "meta_element_set_no": 999,
        "meta_rev_at_epoch": 4965,
        "meta_bstar": 0,
        "meta_mean_motion_dot": 9.3e-07,
        "meta_mean_motion_ddot": 0,
        "tle_line1": "1 43602U 18067A   25347.12136801  .00000093  00000+0  00000+0 0  9990",
        "tle_line2": "2 43602  54.1833 187.3503 0009174  41.0824 319.0476  1.86227680 49652"
      },
      "geometry": {
        "type": "Point",
        "coordinates": [
          111.7038030537561,
          -53.287861717053254
        ]
      }
    },
    {
      "type": "Feature",
      "properties": {
        "norad_id": 43603,
        "name": "BEIDOU-3 M11 (C25)",
        "group": "gnss",
        "lat": -6.866682249115665,
        "lon": 12.260073579197993,
        "alt_km": 21543.255224276425,
        "timestamp": "2025-12-14T14:39:29.613783+00:00",
        "meta_object_name": "BEIDOU-3 M11 (C25)",
        "meta_object_id": "2018-067B",
        "meta_epoch": "2025-12-13T06:08:27.943008",
        "meta_mean_motion": 1.86227177,
        "meta_eccentricity": 0.00055759,
        "meta_inclination": 54.1803,
        "meta_ra_of_asc_node": 187.3097,
        "meta_arg_of_pericenter": 36.863,
        "meta_mean_anomaly": 323.2366,
        "meta_ephemeris_type": 0,
        "meta_classification_type": "U",
        "meta_norad_cat_id": 43603,
        "meta_element_set_no": 999,
        "meta_rev_at_epoch": 4968,
        "meta_bstar": 0,
        "meta_mean_motion_dot": 9.5e-07,
        "meta_mean_motion_ddot": 0,
        "tle_line1": "1 43603U 18067B   25347.25587897  .00000095  00000+0  00000+0 0  9992",
        "tle_line2": "2 43603  54.1803 187.3097 0005575  36.8630 323.2366  1.86227177 49685"
      },
      "geometry": {
        "type": "Point",
        "coordinates": [
          12.260073579197993,
          -6.866682249115665
        ]
      }
    },
    {
      "type": "Feature",
      "properties": {
        "norad_id": 43622,
        "name": "BEIDOU-3 M13 (C32)",
        "group": "gnss",
        "lat": -30.471500078771406,
        "lon": -88.29770807185773,
        "alt_km": 21529.56979167397,
        "timestamp": "2025-12-14T14:39:29.613796+00:00",
        "meta_object_name": "BEIDOU-3 M13 (C32)",
        "meta_object_id": "2018-072A",
        "meta_epoch": "2025-12-12T16:12:36.163584",
        "meta_mean_motion": 1.8623072,
        "meta_eccentricity": 0.0005872,
        "meta_inclination": 56.4592,
        "meta_ra_of_asc_node": 68.8222,
        "meta_arg_of_pericenter": 298.9421,
        "meta_mean_anomaly": 61.0187,
        "meta_ephemeris_type": 0,
        "meta_classification_type": "U",
        "meta_norad_cat_id": 43622,
        "meta_element_set_no": 999,
        "meta_rev_at_epoch": 4918,
        "meta_bstar": 0,
        "meta_mean_motion_dot": -7.4e-07,
        "meta_mean_motion_ddot": 0,
        "tle_line1": "1 43622U 18072A   25346.67541856 -.00000074  00000+0  00000+0 0  9997",
        "tle_line2": "2 43622  56.4592  68.8222 0005872 298.9421  61.0187  1.86230720 49189"
      },
      "geometry": {
        "type": "Point",
        "coordinates": [
          -88.29770807185773,
          -30.471500078771406
        ]
      }
    },
    {
      "type": "Feature",
      "properties": {
        "norad_id": 43623,
        "name": "BEIDOU-3 M14 (C33)",
        "group": "gnss",
        "lat": -41.26256817373723,
        "lon": 33.232182939513436,
        "alt_km": 21524.83563453292,
        "timestamp": "2025-12-14T14:39:29.613808+00:00",
        "meta_object_name": "BEIDOU-3 M14 (C33)",
        "meta_object_id": "2018-072B",
        "meta_epoch": "2025-12-12T00:05:39.634080",
        "meta_mean_motion": 1.86230719,
        "meta_eccentricity": 0.00032787,
        "meta_inclination": 56.4604,
        "meta_ra_of_asc_node": 68.8385,
        "meta_arg_of_pericenter": 334.6213,
        "meta_mean_anomaly": 25.3832,
        "meta_ephemeris_type": 0,
        "meta_classification_type": "U",
        "meta_norad_cat_id": 43623,
        "meta_element_set_no": 999,
        "meta_rev_at_epoch": 4916,
        "meta_bstar": 0,
        "meta_mean_motion_dot": -6.8e-07,
        "meta_mean_motion_ddot": 0,
        "tle_line1": "1 43623U 18072B   25346.00393095 -.00000068  00000+0  00000+0 0  9998",
        "tle_line2": "2 43623  56.4604  68.8385 0003278 334.6213  25.3832  1.86230719 49165"
      },
      "geometry": {
        "type": "Point",
        "coordinates": [
          33.232182939513436,
          -41.26256817373723
        ]
      }
    }
  ]
}